FLOCK 3P-38             
1 42037U 17008CT  17073.68303133  .00001202  00000-0  55389-4 0  9996
2 42037  97.5074 135.2803 0008071 175.3176 184.8148 15.22211389  4101
